satname,norad_id,inclination_deg,eccentricity,mean_motion_rev_per_day,perigee_km,apogee_km,l1,l2
STARLINK-1335,45581,53.0545,0.0001412,15.06392027,546.2581314759609,548.213856809507,1 45581U 20025BC  25323.72667264  .00001480  00000+0  11827-3 0  9991,2 45581  53.0545 210.2646 0001412  97.0850 263.0299 15.06392027308934
STARLINK-1337,45582,53.0537,0.0001415,15.063842,546.2800394128126,548.2399267590254,1 45582U 20025BD  25323.68243257 -.00001565  00000+0 -86209-4 0  9992,2 45582  53.0537 210.4615 0001415 101.7424 258.3724 15.06384200308920
STARLINK-1347,45586,53.0547,0.0009448,15.34216447,456.7851114426585,469.71259415010354,1 45586U 20025BH  25322.96885267  .00053582  00000+0  15929-2 0  9992,2 45586  53.0547 195.7227 0009448  78.6380 281.5682 15.34216447309061
STARLINK-1360,45588,53.0402,0.0001905,15.80720037,327.12565927468677,329.6808511119143,1 45588U 20025BK  25323.91668980  .00101905  00000+0  51730-3 0  9995,2 45588  53.0402 103.5976 0001905 243.1939 208.1454 15.80720037  5948
STARLINK-1364,45589,53.0547,0.0001488,15.06387265,546.2200914808082,548.2810868273409,1 45589U 20025BL  25323.02265641  .00000157  00000+0  29467-4 0  9995,2 45589  53.0547 213.4262 0001488  83.1855 276.9303 15.06387265308822
STARLINK-1365,45590,53.0547,0.0001748,15.06401171,545.997418693677,548.4185192948371,1 45590U 20025BM  25323.76812544 -.00001364  00000+0 -72668-4 0  9992,2 45590  53.0547 240.0739 0001748  89.8397 270.2792 15.06401171308532
STARLINK-1443,45660,53.0543,0.0001768,15.06394818,546.0030356344569,548.4518445004642,1 45660U 20035D   25322.95723706  .00003869  00000+0  27852-3 0  9996,2 45660  53.0543 203.7194 0001768  89.8442 270.2750 15.06394818302043
STARLINK-1446,45663,53.0248,0.000217,15.35335976,458.4388766876564,461.4065946129276,1 45663U 20035G   25323.60374043  .00059433  00000+0  17046-2 0  9999,2 45663  53.0248 159.8923 0002170 111.6373 248.4860 15.35335976302719
STARLINK-1448,45665,53.0545,0.0001728,15.06382832,546.0674665621655,548.4608852085512,1 45665U 20035J   25322.96090409 -.00002107  00000+0 -12263-3 0  9995,2 45665  53.0545 203.6971 0001728  80.6347 279.4838 15.06382832302031
STARLINK-1451,45668,53.0533,0.0001811,15.06385684,546.001246193945,548.5096233338163,1 45668U 20035M   25323.36272307  .00000358  00000+0  42955-4 0  9998,2 45668  53.0533 202.2142 0001811  95.9401 264.1794 15.06385684302107
STARLINK-1452,45669,53.0393,0.001267,15.28450602,471.753616519205,489.13325934892873,1 45669U 20035N   25323.59979978  .00059353  00000+0  21058-2 0  9990,2 45669  53.0393 179.2546 0012670  85.4346 274.8100 15.28450602302443
STARLINK-1453,45670,53.0528,0.0001556,15.09933734,535.3263975365371,537.4782021666506,1 45670U 20035P   25323.66670139 -.00009621  00000+0 -56954-3 0  9996,2 45670  53.0528 170.4730 0001556 107.1056  77.9335 15.09933734  5751
STARLINK-1454,45671,53.0545,0.0001733,15.06401723,546.0061152065309,548.4064391864067,1 45671U 20035Q   25323.65018011  .00000247  00000+0  35468-4 0  9992,2 45671  53.0545 200.6088 0001733  89.2169 270.9019 15.06401723302136
STARLINK-1456,45673,53.0541,0.0001481,15.06381337,546.2431053431119,548.2944105286124,1 45673U 20035S   25323.39953894  .00006669  00000+0  46640-3 0  9999,2 45673  53.0541 201.7340 0001481  68.8747 291.2401 15.06381337302119
STARLINK-1457,45674,53.0528,0.0001299,15.42988278,436.41021573330727,438.1808651073079,1 45674U 20035T   25323.66670139  .00035697  00000+0  80332-3 0  9997,2 45674  53.0528 197.8335 0001299 110.8349 161.9737 15.42988278  5816
STARLINK-1458,45675,53.0533,0.0001446,15.0638612,546.2526869129942,548.255510018671,1 45675U 20035U   25323.66124300  .00008098  00000+0  56210-3 0  9995,2 45675  53.0533 200.5553 0001446  80.5111 279.6042 15.06386120302118
STARLINK-1460,45676,53.0529,0.0001203,15.06423033,546.3078550707905,547.9740769494128,1 45676U 20035V   25323.36635045  .00009977  00000+0  68728-3 0  9990,2 45676  53.0529 201.8808 0001203  84.1158 275.9968 15.06423033302068
STARLINK-1392,45677,53.0546,0.0001675,15.06392394,546.0748695427837,548.3948691190108,1 45677U 20035W   25323.37742074  .00000125  00000+0  27305-4 0  9996,2 45677  53.0546 201.8331 0001675  97.8568 262.2611 15.06392394302102
STARLINK-1394,45679,53.0532,0.0001527,15.06400855,546.1514371630055,548.2664378123136,1 45679U 20035Y   25323.64004343  .00004860  00000+0  34490-3 0  9990,2 45679  53.0532 190.6514 0001527  91.9891 268.1273 15.06400855302287
STARLINK-1402,45685,53.0513,0.0004081,15.28731259,476.80533192331495,482.4026201079396,1 45685U 20035AE  25323.77037068  .00047831  00000+0  16909-2 0  9990,2 45685  53.0513 179.9400 0004081 141.8365 218.2923 15.28731259302452
STARLINK-1404,45686,53.0532,0.0001352,15.06402805,546.2666550678805,548.1392669933421,1 45686U 20035AF  25323.66584479 -.00005207  00000+0 -33093-3 0  9999,2 45686  53.0532 190.5381 0001352  95.9323 264.1821 15.06402805302299
STARLINK-1413,45689,53.0517,0.0001501,15.06420405,546.1095348264162,548.1885056896972,1 45689U 20035AJ  25323.61790846  .00006056  00000+0  42486-3 0  9991,2 45689  53.0517 190.7480 0001501 101.6275 258.4882 15.06420405302192
STARLINK-1417,45693,53.0547,0.0001583,15.06458508,545.935990857155,548.1284994401694,1 45693U 20035AN  25323.34880171  .00012159  00000+0  83246-3 0  9997,2 45693  53.0547 191.9614 0001583 104.9123 255.2041 15.06458508302232
STARLINK-1420,45695,53.0477,9.18e-05,15.06400866,546.5731570203097,547.8446505282436,1 45695U 20035AQ  25323.61513328 -.00002147  00000+0 -12528-3 0  9999,2 45695  53.0477 170.7476 0000918  60.5260 299.5821 15.06400866302564
STARLINK-1422,45696,53.0547,0.0001363,15.06394025,546.2859430087983,548.1737980177004,1 45696U 20035AR  25322.96183088 -.00001214  00000+0 -62624-4 0  9990,2 45696  53.0547 193.6988 0001363  95.8567 264.2578 15.06394025302175
STARLINK-1351,45697,53.052,0.0001297,15.06404611,546.2992100483889,548.0956417984735,1 45697U 20035AS  25323.60133654  .00000654  00000+0  62762-4 0  9995,2 45697  53.0520 170.8253 0001297  88.3202 271.7935 15.06404611302564
STARLINK-1398,45699,53.0443,0.0004586,15.54974155,399.11828335761675,405.337233914237,1 45699U 20035AU  25323.17318135  .00073398  00000+0  10731-2 0  9990,2 45699  53.0443 126.1839 0004586 156.7235 203.3983 15.54974155303152
STARLINK-1400,45700,53.0503,0.0002,15.06405347,545.8101037678207,548.5802366359003,1 45700U 20035AV  25323.84092683  .00005184  00000+0  36662-3 0  9994,2 45700  53.0503 169.7490 0002000  84.8975 275.2243 15.06405347302592
STARLINK-1403,45701,53.0521,0.0001753,15.06390174,546.0276544953294,548.4556922582151,1 45701U 20035AW  25323.60503721  .00000624  00000+0  60837-4 0  9995,2 45701  53.0521 170.8093 0001753  92.5977 267.5213 15.06390174302555
STARLINK-1407,45703,53.037,0.001191,15.43841562,426.66985221458435,442.8982301346623,1 45703U 20035AY  25322.88816466  .00050654  00000+0  10992-2 0  9992,2 45703  53.0370 127.9145 0011910 118.4306 241.7901 15.43841562303103
STARLINK-1411,45706,53.0498,0.0001468,15.43548623,434.64573411553556,436.64626080358994,1 45706U 20035BB  25323.80852285  .00037171  00000+0  82035-3 0  9994,2 45706  53.0498 150.7574 0001468 178.0012 182.0999 15.43548623302857
STARLINK-1423,45710,53.0535,0.0001309,15.06400961,546.302084872561,548.1151403539443,1 45710U 20035BF  25322.63562017 -.00001589  00000+0 -87801-4 0  9993,2 45710  53.0535 175.1635 0001309  83.1425 276.9713 15.06400961302411
STARLINK-1433,45711,53.0514,0.0001436,15.0640115,546.2135538093607,548.2025129029398,1 45711U 20035BG  25323.61239412  .00000278  00000+0  37556-4 0  9997,2 45711  53.0514 170.7736 0001436  91.8131 268.3022 15.06401150302557
STARLINK-1434,45712,53.0431,0.0007769,15.16711157,510.4326277784512,521.1444092491183,1 45712U 20035BH  25323.84924975  .00029194  00000+0  14806-2 0  9997,2 45712  53.0431 164.5525 0007769 117.6532 242.5250 15.16711157302672
STARLINK-1465,45731,53.057,0.0001603,15.06390437,546.1307292388756,548.3510053831351,1 45731U 20038B   25323.51287888  .00000382  00000+0  44556-4 0  9995,2 45731  53.0570  11.2185 0001603  82.0074 278.1096 15.06390437299585
STARLINK-1471,45735,53.0513,0.0001288,15.4193995,439.5060643941697,441.2625154784564,1 45735U 20038F   25323.22749240  .00021740  00000+0  51128-3 0  9995,2 45735  53.0513 308.1528 0001288  72.3333 287.7812 15.41939950300453
STARLINK-1474,45738,53.0364,0.0004373,15.70661718,354.0593956357716,359.9499505430558,1 45738U 20038J   25323.13148020  .00086747  00000+0  68540-3 0  9991,2 45738  53.0364 262.2329 0004373  63.1644 296.9819 15.70661718301085
STARLINK-1475,45739,53.0442,0.0005813,15.90096346,298.1298356639063,305.8961780618847,1 45739U 20038K   25323.91668980  .00187885  23942-4  61957-3 0  9995,2 45739  53.0442 222.8277 0005813 111.0348 295.4126 15.90096346  5987
STARLINK-1480,45741,53.0561,0.0001426,15.06395606,546.237468323402,548.2125815729169,1 45741U 20038M   25323.82618447 -.00001163  00000+0 -59195-4 0  9994,2 45741  53.0561   9.8130 0001426  94.5044 265.6108 15.06395606299642
STARLINK-1500,45744,53.0419,0.0001306,15.28662277,478.91463359068985,480.7059294206201,1 45744U 20038Q   25323.79302765  .00016776  00000+0  60499-3 0  9998,2 45744  53.0419 345.7931 0001306 315.6244  44.4650 15.28662277299970
STARLINK-1504,45746,53.0286,0.0002347,15.42284718,437.76802540452445,440.9681622955777,1 45746U 20038S   25323.70097134  .00076938  00000+0  17522-2 0  9996,2 45746  53.0286 309.0046 0002347   8.6601 351.4443 15.42284718300471
STARLINK-1506,45747,53.0656,0.0002453,15.21982465,498.1743052024358,501.54865125585457,1 45747U 20038T   25323.37069258  .00008246  00000+0  37060-3 0  9993,2 45747  53.0656 351.1536 0002453 326.6126  33.4715 15.21982465299868
STARLINK-1464,45751,53.0556,0.0001346,15.06398202,546.2849158971712,548.1492212124267,1 45751U 20038X   25323.36359246 -.00000923  00000+0 -43060-4 0  9990,2 45751  53.0556 351.8928 0001346  84.4212 275.6930 15.06398202299850
